GLOBALSTAR M057         
1 25943U 99058A   25312.23044882 -.00000083  00000+0  87423-4 0  9997
2 25943  51.9991 299.4083 0002448 315.3829  44.6823 12.24828146184584
GLOBALSTAR M059         
1 25944U 99058B   25312.38632247 -.00000063  00000+0  28504-3 0  9994
2 25944  51.9992 177.0656 0000819  79.7572  91.5398 11.99986811591359
GLOBALSTAR M056         
1 25945U 99058C   25312.60735712  .00000002  00000+0  10494-2 0  9991
2 25945  51.9938 174.7250 0001896  90.7282 294.0929 12.04781467180037
GLOBALSTAR M031         
1 25946U 99058D   25312.68505448 -.00000101  00000+0 -10624-3 0  9999
2 25946  51.9974  58.1830 0002102 116.7469  30.9264 12.16043134182120
GLOBALSTAR M039         
1 25961U 99062A   25312.58914948 -.00000061  00000+0  23585-3 0  9993
2 25961  51.9827 188.8926 0002170 329.9588  30.1154 12.62336104198452
GLOBALSTAR M034         
1 25962U 99062B   25312.54931971  .00000009  00000+0  14266-2 0  9991
2 25962  51.9905 356.1281 0013887 314.4296 195.5188 11.79450974155428
GLOBALSTAR M029         
1 25963U 99062C   25312.73335926 -.00000068  00000+0  22357-3 0  9998
2 25963  51.9812  64.0345 0002822  59.1507  89.4296 11.99903192186474
GLOBALSTAR M061         
1 25964U 99062D   25312.68523648 -.00000037  00000+0  71514-3 0  9998
2 25964  51.9762 181.7277 0004871 232.4689 164.6564 11.76777803138196
